BEESAT-4                
1 41619U 16040W   21204.40253753  .00002707  00000-0  10887-3 0  9993
2 41619  97.2674 259.4852 0010140 194.6827 165.4118 15.25701120270498
CAS-2T & KS-1Q          
1 41847U 16066G   21204.16628891  .00000234  00000-0  44434-4 0  9995
2 41847  98.5989 263.4407 0366314 113.7480 250.2577 14.38213827247018
NAYIF-1 (EO-88)         
1 42017U 17008BX  21204.17924064  .00003000  00000-0  11120-3 0  9993
2 42017  97.3143 271.1402 0005490 359.7538   0.3698 15.28383723246716
ZHUHAI-1 02 (CAS-4B)    
1 42759U 17034B   21204.47593530  .00000403  00000-0  37495-4 0  9996
2 42759  43.0192 343.0368 0008275  19.8920  89.7318 15.10274906226591
ZHUHAI-1 01 (CAS-4A)    
1 42761U 17034D   21204.52635640  .00000451  00000-0  40335-4 0  9994
2 42761  43.0190 341.7868 0008597  21.9369  62.6601 15.10363454226604
MAX VALIER SAT          
1 42778U 17036P   21204.35836305  .00001752  00000-0  75624-4 0  9990
2 42778  97.2526 251.7892 0013242  55.4748 304.7738 15.23735169226756
RADFXSAT (FOX-1B)       
1 43017U 17073E   21204.24402575  .00000502  00000-0  43993-4 0  9990
2 43017  97.7036 106.8122 0254569 183.2894 176.6657 14.79607034198417
FOX-1D (AO-92)          
1 43137U 18004AC  21204.41374725  .00001890  00000-0  77645-4 0  9994
2 43137  97.4055 278.0782 0010473  86.2396 274.0039 15.25393980196144
DIWATA-2B               
1 43678U 18084H   21204.60753745  .00000006  00000-0  64041-5 0  9991
2 43678  97.9281 330.0818 0008628 295.6770  64.3524 14.91766844148826
ES'HAIL 2               
1 43700U 18090A   21204.30919840  .00000131  00000-0  00000-0 0  9990
2 43700   0.0130  83.2417 0001770  63.3048 291.7931  1.00271721  9725
FOX-1CLIFF (AO-95)      
1 43770U 18099N   21203.78137906  .00000307  00000-0  32957-4 0  9997
2 43770  97.6632 273.1864 0013183 302.6529  57.3419 14.95362859143739
ITASAT 1                
1 43786U 18099AE  21204.42964367  .00000168  00000-0  20260-4 0  9994
2 43786  97.6658 274.5234 0013644 293.0764  66.9019 14.95654881143861
JY1SAT (JO-97)          
1 43803U 18099AX  21204.18680337  .00000344  00000-0  35862-4 0  9999
2 43803  97.6612 274.0336 0013682 292.9523  67.0254 14.95904886143835
UWE-4                   
1 43880U 18111E   21204.54754335  .00000961  00000-0  88694-4 0  9995
2 43880  97.6839 111.6620 0011791 350.6996   9.4005 14.96912545140482
NEXUS (FO-99)           
1 43937U 19003F   21204.39102408  .00002230  00000-0  89193-4 0  9996
2 43937  97.1737 246.1313 0021409 242.7817 117.1240 15.25908571139742
PSAT2 (NO-104)          
1 44354U 19036R   21204.49126611  .00020464  00000-0  26668-3 0  9995
2 44354  28.5287 246.5704 0320291 307.1123  50.0604 15.14817643114445
BRICSAT2 (NO-103)       
1 44355U 19036S   21204.31898813  .00047385 -54419-5  48351-3 0  9990
2 44355  28.5246 196.5244 0252489  28.7455 332.6807 15.32617202114938
JAISAT-1                
1 44419U 19038F   21204.46426705  .00001354  00000-0  78218-4 0  9999
2 44419  97.5905 169.0394 0020722 183.5959 176.5126 15.13868877113247
DUCHIFAT-3              
1 44854U 19089C   21204.41770678  .00000355  00000-0  34737-4 0  9992
2 44854  36.9675 247.9452 0007333  63.0405 297.1094 14.99544248 88503
CAS-6 (TO-108)          
1 44881U 19093C   21204.53479888  .00000052  00000-0  13445-4 0  9996
2 44881  97.9238 282.9702 0015152 170.3538 189.7972 14.81464643 86071
RS-44 & BREEZE-KM R/B   
1 44909U 19096E   21204.20021729  .00000027  00000-0  62130-4 0  9998
2 44909  82.5207  89.0639 0217785   9.8380 350.6882 12.79710869 73399
ORBITAL FACTORY 2 (OF-2)
1 45113U 19071C   21204.45187039  .00003973  00000-0  12219-3 0  9998
2 45113  51.6402 222.9368 0012366  63.8852 296.3402 15.36021527 82701
HUSKYSAT-1 (HO-107)     
1 45119U 19071J   21204.33273459  .00003678  00000-0  11393-3 0  9997
2 45119  51.6397 222.8856 0011770  60.3886 299.8268 15.36027567 82683
BY70-2                  
1 45857U 20042B   21204.54839039  .00001174  00000-0  17313-3 0  9998
2 45857  97.9828 279.9216 0012879  98.5230 261.7446 14.77128999 56877
SALSAT                  
1 46495U 20068K   21204.59979317 -.00000062  00000-0  48984-7 0  9992
2 46495  97.6932 141.8846 0015734 316.0207  43.9751 15.03492344 44762
BY70-3                  
1 46839U 20079N   21204.59851225  .00003785  00000-0  11753-3 0  9997
2 46839  97.2395 277.7401 0008993  80.4495  55.6737 15.33935881 39746
RADFXSAT-2 (AO-109)     
1 47311U 21002C   21204.43090139  .00001767  00000-0  87905-4 0  9993
2 47311  60.6847 156.5073 0039770  66.6156 293.9105 15.21761934 28347
UVSQ-SAT                
1 47438U 21006AB  21204.42120298  .00001079  00000-0  64329-4 0  9997
2 47438  97.4852 264.9986 0012011 341.0887  18.9896 15.13222530 27490
DIY-1 (ARDUIQUBE)       
1 47963U 21022AH  21204.40825337  .00003167  00000-0  21250-3 0  9997
2 47963  97.5558 106.1048 0019273 177.1507 182.9835 15.07412120 17311
